[
    {
        "Altitude(m)": 706210.4947401715,
        "Argument of Periapsis(deg)": 0.0,
        "Eccentricity": 0.0,
        "Inclination(deg)": 45.0,
        "Latitude(deg)": 40.17338936211227,
        "Longitude(deg)": -2.0813795886875015,
        "Mean Anomaly(deg)": -245.4545,
        "RAAN(deg)": 335.0,
        "Satellite Name": "Constellation 1 1481",
        "Satellite Number": 1481,
        "Semi-Major Axis(m)": 7083131.272910544,
        "Time(s)": 0
    },
    {
        "Altitude(m)": 706205.4886475266,
        "Argument of Periapsis(deg)": 5.994800624540561e-05,
        "Eccentricity": 0.0,
        "Inclination(deg)": 45.0,
        "Latitude(deg)": 40.14999029080323,
        "Longitude(deg)": -2.0122996545197704,
        "Mean Anomaly(deg)": -245.3937988597501,
        "RAAN(deg)": 334.9999434108345,
        "Satellite Name": "Constellation 1 1481",
        "Satellite Number": 1481,
        "Semi-Major Axis(m)": 7083131.272910544,
        "Time(s)": 1
    },
    {
        "Altitude(m)": 706200.4744915728,
        "Argument of Periapsis(deg)": 0.00011989601249081122,
        "Eccentricity": 0.0,
        "Inclination(deg)": 45.0,
        "Latitude(deg)": 40.12654491326451,
        "Longitude(deg)": -1.9432699467407548,
        "Mean Anomaly(deg)": -245.33309771950024,
        "RAAN(deg)": 334.9998868216689,
        "Satellite Name": "Constellation 1 1481",
        "Satellite Number": 1481,
        "Semi-Major Axis(m)": 7083131.272910544,
        "Time(s)": 2
    },
    {
        "Altitude(m)": 706195.4523027168,
        "Argument of Periapsis(deg)": 0.00017984401873621686,
        "Eccentricity": 0.0,
        "Inclination(deg)": 45.0,
        "Latitude(deg)": 40.103053298902516,
        "Longitude(deg)": -1.874290488140069,
        "Mean Anomaly(deg)": -245.2723965792503,
        "RAAN(deg)": 334.9998302325033,
        "Satellite Name": "Constellation 1 1481",
        "Satellite Number": 1481,
        "Semi-Major Axis(m)": 7083131.272910544,
        "Time(s)": 3
    },
    {
        "Altitude(m)": 706190.4221114287,
        "Argument of Periapsis(deg)": 0.00023979202498162244,
        "Eccentricity": 0.0,
        "Inclination(deg)": 45.0,
        "Latitude(deg)": 40.079515517134716,
        "Longitude(deg)": -1.805361301045806,
        "Mean Anomaly(deg)": -245.21169543900038,
        "RAAN(deg)": 334.99977364333773,
        "Satellite Name": "Constellation 1 1481",
        "Satellite Number": 1481,
        "Semi-Major Axis(m)": 7083131.272910544,
        "Time(s)": 4
    },
    {
        "Altitude(m)": 706185.3839482195,
        "Argument of Periapsis(deg)": 0.00029974003122702807,
        "Eccentricity": 0.0,
        "Inclination(deg)": 45.0,
        "Latitude(deg)": 40.055931637389186,
        "Longitude(deg)": -1.7364824073271063,
        "Mean Anomaly(deg)": -245.15099429875056,
        "RAAN(deg)": 334.99971705417215,
        "Satellite Name": "Constellation 1 1481",
        "Satellite Number": 1481,
        "Semi-Major Axis(m)": 7083131.272910544,
        "Time(s)": 5
    },
    {
        "Altitude(m)": 706180.3378436627,
        "Argument of Periapsis(deg)": 0.00035968803747243373,
        "Eccentricity": 0.0,
        "Inclination(deg)": 45.0,
        "Latitude(deg)": 40.03230172910338,
        "Longitude(deg)": -1.6676538283934774,
        "Mean Anomaly(deg)": -245.09029315850054,
        "RAAN(deg)": 334.9996604650066,
        "Satellite Name": "Constellation 1 1481",
        "Satellite Number": 1481,
        "Semi-Major Axis(m)": 7083131.272910544,
        "Time(s)": 6
    },
    {
        "Altitude(m)": 706175.2838283858,
        "Argument of Periapsis(deg)": 0.00041963604371783933,
        "Eccentricity": 0.0,
        "Inclination(deg)": 45.0,
        "Latitude(deg)": 40.0086258617238,
        "Longitude(deg)": -1.5988757532949982,
        "Mean Anomaly(deg)": -245.02959201825075,
        "RAAN(deg)": 334.99960387584105,
        "Satellite Name": "Constellation 1 1481",
        "Satellite Number": 1481,
        "Semi-Major Axis(m)": 7083131.272910544,
        "Time(s)": 7
    },
    {
        "Altitude(m)": 706170.2219330686,
        "Argument of Periapsis(deg)": 0.0004795840499632449,
        "Eccentricity": 0.0,
        "Inclination(deg)": 45.0,
        "Latitude(deg)": 39.98490410470612,
        "Longitude(deg)": -1.530147866334683,
        "Mean Anomaly(deg)": -244.96889087800085,
        "RAAN(deg)": 334.99954728667547,
        "Satellite Name": "Constellation 1 1481",
        "Satellite Number": 1481,
        "Semi-Major Axis(m)": 7083131.272910544,
        "Time(s)": 8
    },
    {
        "Altitude(m)": 706165.1521884485,
        "Argument of Periapsis(deg)": 0.0005395320562086505,
        "Eccentricity": 0.0,
        "Inclination(deg)": 45.0,
        "Latitude(deg)": 39.96113652751312,
        "Longitude(deg)": -1.4614703556519184,
        "Mean Anomaly(deg)": -244.90818973775092,
        "RAAN(deg)": 334.9994906975099,
        "Satellite Name": "Constellation 1 1481",
        "Satellite Number": 1481,
        "Semi-Major Axis(m)": 7083131.272910544,
        "Time(s)": 9
    },
    {
        "Altitude(m)": 706160.0746253077,
        "Argument of Periapsis(deg)": 0.0005994800624540561,
        "Eccentricity": 0.0,
        "Inclination(deg)": 45.0,
        "Latitude(deg)": 39.93732319961497,
        "Longitude(deg)": -1.3928432408360387,
        "Mean Anomaly(deg)": -244.847488597501,
        "RAAN(deg)": 334.9994341083443,
        "Satellite Name": "Constellation 1 1481",
        "Satellite Number": 1481,
        "Semi-Major Axis(m)": 7083131.272910544,
        "Time(s)": 10
    },
    {
        "Altitude(m)": 706154.9892744957,
        "Argument of Periapsis(deg)": 0.0006594280686994618,
        "Eccentricity": 0.0,
        "Inclination(deg)": 45.0,
        "Latitude(deg)": 39.913464190488355,
        "Longitude(deg)": -1.3242665410242012,
        "Mean Anomaly(deg)": -244.78678745725108,
        "RAAN(deg)": 334.9993775191788,
        "Satellite Name": "Constellation 1 1481",
        "Satellite Number": 1481,
        "Semi-Major Axis(m)": 7083131.272910544,
        "Time(s)": 11
    },
    {
        "Altitude(m)": 706149.8961669008,
        "Argument of Periapsis(deg)": 0.0007193760749448675,
        "Eccentricity": 0.0,
        "Inclination(deg)": 45.0,
        "Latitude(deg)": 39.88955956961601,
        "Longitude(deg)": -1.2557402749033855,
        "Mean Anomaly(deg)": -244.72608631700123,
        "RAAN(deg)": 334.9993209300132,
        "Satellite Name": "Constellation 1 1481",
        "Satellite Number": 1481,
        "Semi-Major Axis(m)": 7083131.272910544,
        "Time(s)": 12
    },
    {
        "Altitude(m)": 706144.7953334711,
        "Argument of Periapsis(deg)": 0.000779324081190273,
        "Eccentricity": 0.0,
        "Inclination(deg)": 45.0,
        "Latitude(deg)": 39.865609406485845,
        "Longitude(deg)": -1.1872644607110867,
        "Mean Anomaly(deg)": -244.66538517675127,
        "RAAN(deg)": 334.9992643408477,
        "Satellite Name": "Constellation 1 1481",
        "Satellite Number": 1481,
        "Semi-Major Axis(m)": 7083131.272910544,
        "Time(s)": 13
    },
    {
        "Altitude(m)": 706139.6868052146,
        "Argument of Periapsis(deg)": 0.0008392720874356787,
        "Eccentricity": 0.0,
        "Inclination(deg)": 45.0,
        "Latitude(deg)": 39.841613770590534,
        "Longitude(deg)": -1.1188391162372546,
        "Mean Anomaly(deg)": -244.60468403650142,
        "RAAN(deg)": 334.99920775168204,
        "Satellite Name": "Constellation 1 1481",
        "Satellite Number": 1481,
        "Semi-Major Axis(m)": 7083131.272910544,
        "Time(s)": 14
    },
    {
        "Altitude(m)": 706134.5706131817,
        "Argument of Periapsis(deg)": 0.0008992200936810842,
        "Eccentricity": 0.0,
        "Inclination(deg)": 45.0,
        "Latitude(deg)": 39.81757273142645,
        "Longitude(deg)": -1.050464426921801,
        "Mean Anomaly(deg)": -244.54398289625152,
        "RAAN(deg)": 334.99915116251645,
        "Satellite Name": "Constellation 1 1481",
        "Satellite Number": 1481,
        "Semi-Major Axis(m)": 7083131.272910544,
        "Time(s)": 15
    },
    {
        "Altitude(m)": 706129.4467884799,
        "Argument of Periapsis(deg)": 0.0009591680999264898,
        "Eccentricity": 0.0,
        "Inclination(deg)": 45.0,
        "Latitude(deg)": 39.793486358494434,
        "Longitude(deg)": -0.982140073468994,
        "Mean Anomaly(deg)": -244.48328175600162,
        "RAAN(deg)": 334.99909457335093,
        "Satellite Name": "Constellation 1 1481",
        "Satellite Number": 1481,
        "Semi-Major Axis(m)": 7083131.272910544,
        "Time(s)": 16
    },
    {
        "Altitude(m)": 706124.3153622661,
        "Argument of Periapsis(deg)": 0.0010191161061718953,
        "Eccentricity": 0.0,
        "Inclination(deg)": 45.0,
        "Latitude(deg)": 39.76935472129706,
        "Longitude(deg)": -0.9138662404300502,
        "Mean Anomaly(deg)": -244.42258061575168,
        "RAAN(deg)": 334.99903798418535,
        "Satellite Name": "Constellation 1 1481",
        "Satellite Number": 1481,
        "Semi-Major Axis(m)": 7083131.272910544,
        "Time(s)": 17
    },
    {
        "Altitude(m)": 706119.1763657599,
        "Argument of Periapsis(deg)": 0.001079064112417301,
        "Eccentricity": 0.0,
        "Inclination(deg)": 45.0,
        "Latitude(deg)": 39.7451778893396,
        "Longitude(deg)": -0.8456429438168054,
        "Mean Anomaly(deg)": -244.3618794755018,
        "RAAN(deg)": 334.9989813950198,
        "Satellite Name": "Constellation 1 1481",
        "Satellite Number": 1481,
        "Semi-Major Axis(m)": 7083131.272910544,
        "Time(s)": 18
    }
]